[{"OBJECT_NAME":"STARLINK-1781","OBJECT_ID":"2020-073R","EPOCH":"2026-03-10T00:00:02.999808","MEAN_MOTION":15.5545152,"ECCENTRICITY":0.00022789,"INCLINATION":53.0517,"RA_OF_ASC_NODE":241.8164,"ARG_OF_PERICENTER":283.8395,"MEAN_ANOMALY":305.8811,"EPHEMERIS_TYPE":0,"CLASSIFICATION_TYPE":"U","NORAD_CAT_ID":46685,"ELEMENT_SET_NO":999,"REV_AT_EPOCH":581,"BSTAR":0.0021166167,"MEAN_MOTION_DOT":0.00149196,"MEAN_MOTION_DDOT":0},{"OBJECT_NAME":"STARLINK-36595","OBJECT_ID":"2026-020Y","EPOCH":"2026-03-09T22:00:01.999584","MEAN_MOTION":15.68201858,"ECCENTRICITY":0.00012094,"INCLINATION":42.999,"RA_OF_ASC_NODE":140.3235,"ARG_OF_PERICENTER":283.6105,"MEAN_ANOMALY":204.2626,"EPHEMERIS_TYPE":0,"CLASSIFICATION_TYPE":"U","NORAD_CAT_ID":67639,"ELEMENT_SET_NO":999,"REV_AT_EPOCH":599,"BSTAR":-0.019427213,"MEAN_MOTION_DOT":-0.01971633,"MEAN_MOTION_DDOT":0}]
